STARLINK-31432          
1 59932U 24106L   24162.91667824 -.00878112  00000+0 -35382-2 0  9990
2 59932  43.0037   5.3942 0001674 285.7063  72.7703 15.87458463  2727
STARLINK-31853          
1 59933U 24106M   24162.91667824 -.00894122  00000+0 -36039-2 0  9990
2 59933  43.0035   5.3820 0001801 286.4574  76.8470 15.87487528  2728
STARLINK-31971          
1 59934U 24106N   24162.91667824 -.00148612  16808-4 -22151-3 0  9996
2 59934  43.0023   4.8588 0002347 269.5271 299.8726 16.03558620  2567
STARLINK-31301          
1 59935U 24106P   24162.91667824 -.00913064  00000+0 -36752-2 0  9991
2 59935  43.0033   5.3657 0001732 286.4729  83.0433 15.87559452  2771
STARLINK-31962          
1 59936U 24106Q   24162.91667824 -.00916268  00000+0 -36834-2 0  9992
2 59936  43.0031   5.3612 0001733 286.6310  84.6790 15.87592295  2720
STARLINK-31879          
1 59937U 24106R   24162.91667824 -.00930824  00000+0 -37370-2 0  9993
2 59937  43.0031   5.3475 0001715 286.4258  90.3653 15.87652419  2779
STARLINK-31876          
1 59938U 24106S   24162.91667824 -.00926379  00000+0 -37231-2 0  9990
2 59938  43.0030   5.3529 0001684 286.0130  88.5285 15.87621281  2727
STARLINK-31955          
1 59939U 24106T   24162.91667824 -.00933001  00000+0 -37407-2 0  9996
2 59939  43.0030   5.3429 0001774 286.6487  91.9586 15.87683667  2771
STARLINK-31946          
1 59940U 24106U   24162.91667824 -.00937237  00000+0 -37535-2 0  9995
2 59940  43.0029   5.3377 0001748 287.0548  93.4757 15.87715960  2776
STARLINK-31948          
1 59941U 24106V   24162.91667824  .00817949  33853-3  12004-2 0  9991
2 59941  43.0025   4.9913 0006930 264.3353 252.9289 16.04213740  2720
STARLINK-31900          
1 59942U 24106W   24162.91667824 -.00948289  00000+0 -37911-2 0  9994
2 59942  43.0030   5.3254 0001884 287.0752  98.4216 15.87775073  2723
STARLINK-31973          
1 59943U 24106X   24162.91667824 -.00957887  00000+0 -38225-2 0  9998
2 59943  43.0029   5.3126 0001955 286.4322 103.9842 15.87832803  2727
STARLINK-31966          
1 59944U 24106Y   24162.91667824 -.00960448  00000+0 -38405-2 0  9996
2 59944  43.0029   5.3161 0001736 287.3689 101.7317 15.87800814  2775
STARLINK-11145 [DTC]    
1 59945U 24107A   24162.75002315 -.00812615  21141-3 -23302-2 0  9993
2 59945  53.1545 156.2773 0000598  68.7314  70.3811 15.92444620  2042
STARLINK-11121 [DTC]    
1 59946U 24107B   24162.75002315 -.00794637  20384-3 -22342-2 0  9998
2 59946  53.1546 156.2683 0000486  99.8154  43.8001 15.92817358  2102
STARLINK-11113 [DTC]    
1 59947U 24107C   24162.75002315 -.00918415  27492-3 -21049-2 0  9991
2 59947  53.1545 156.2155 0001132 110.6100  58.5712 15.96651272  2048
STARLINK-11123 [DTC]    
1 59948U 24107D   24162.75002315 -.00792994  20349-3 -22058-2 0  9999
2 59948  53.1547 156.2630 0000486  88.8112  57.3507 15.93021217  2102
STARLINK-11138 [DTC]    
1 59949U 24107E   24162.75002315 -.00784123  19983-3 -21581-2 0  9997
2 59949  53.1547 156.2578 0000736  79.5084  69.2211 15.93220669  2103
STARLINK-11130 [DTC]    
1 59950U 24107F   24162.75002315 -.00779141  19791-3 -21242-2 0  9994
2 59950  53.1548 156.2532 0000700  75.0264  75.8712 15.93398965  2045
STARLINK-11126 [DTC]    
1 59951U 24107G   24162.75002315 -.00776634  19716-3 -20955-2 0  9996
2 59951  53.1547 156.2479 0000507 117.7607  35.6314 15.93594968  2105
STARLINK-11124 [DTC]    
1 59952U 24107H   24162.75002315 -.00770459  19470-3 -20592-2 0  9990
2 59952  53.1547 156.2434 0000568  84.4482  71.1685 15.93772726  2112
STARLINK-11143 [DTC]    
1 59953U 24107J   24162.75002315 -.00773044  19623-3 -20461-2 0  9999
2 59953  53.1548 156.2389 0000560  73.5821  84.2941 15.93956582  2047
STARLINK-11133 [DTC]    
1 59954U 24107K   24162.75002315 -.00764111  19251-3 -20046-2 0  9991
2 59954  53.1548 156.2345 0000596  78.8900  81.0715 15.94121263  2040
STARLINK-11144 [DTC]    
1 59955U 24107L   24162.75002315 -.00763711  19272-3 -19824-2 0  9992
2 59955  53.1548 156.2292 0000606  79.9429  82.6192 15.94320201  2108
STARLINK-11134 [DTC]    
1 59956U 24107M   24162.75002315 -.00754788  18906-3 -19397-2 0  9995
2 59956  53.1549 156.2243 0000704  71.4032  93.6206 15.94505648  1727
STARLINK-11142 [DTC]    
1 59957U 24107N   24162.75002315 -.00746860  18583-3 -19029-2 0  9991
2 59957  53.1549 156.2202 0000870 110.9887  56.0535 15.94664108  2045
STARLINK-31995          
1 59958U 24107P   24162.75002315 -.00983862  30581-3 -24815-2 0  9998
2 59958  53.1545 156.1918 0000752  82.5756  97.9646 15.94901243  1997
STARLINK-31989          
1 59959U 24107Q   24162.75002315 -.00975329  30057-3 -24800-2 0  9990
2 59959  53.1546 156.1963 0000571  88.8477  89.6099 15.94748829  2111
STARLINK-31856          
1 59960U 24107R   24162.75002315 -.01013106  32351-3 -25121-2 0  9995
2 59960  53.1544 156.1830 0000689 119.6968  65.1359 15.95223304  2117
STARLINK-31993          
1 59961U 24107S   24162.75002315 -.01006133  31903-3 -25139-2 0  9999
2 59961  53.1544 156.1869 0000561  92.3747  90.4754 15.95080685  1999
STARLINK-31980          
1 59962U 24107T   24162.75002315 -.01035896  33737-3 -25464-2 0  9996
2 59962  53.1544 156.1782 0000545  92.1130  94.8640 15.95388611  2117
STARLINK-31991          
1 59963U 24107U   24162.75002315 -.01044342  34289-3 -25467-2 0  9999
2 59963  53.1545 156.1739 0000884  95.1876  93.8465 15.95537678  2110
STARLINK-31979          
1 59964U 24107V   24162.75002315 -.01067455  35732-3 -25822-2 0  9999
2 59964  53.1542 156.1700 0000574  81.1868 109.8449 15.95690907  1998
PREFIRE-2               
1 59965U 24108A   24162.92281041  .00006440  00000+0  38028-3 0  9998
2 59965  97.4519 313.8829 0012578 284.0065  75.9766 15.11787729   876
ELECTRON R/B            
1 59966U 24108B   24162.87580768  .01544884  22424-5  12698-2 0  9995
2 59966  97.4930 314.4587 0196850 201.0100 158.3003 15.85003428   897
ELECTRON KICK STAGE R/B 
1 59967U 24108C   24162.93924790  .00025071  00000+0  96634-3 0  9994
2 59967  97.4373 314.0036 0052135   5.0664 355.1090 15.25025496   872
STARLINER CFT-1         
1 59968U 24109A   24162.81651273  .00017095  00000+0  30193-3 0  9991
2 59968  51.6391 346.8448 0008144 283.1606  76.8474 15.50433980457532
2024-110A               
1 60012U 24110A   24162.90304700  .00010926  00000+0  75000-3 0  9997
2 60012  97.6014 249.5690 0012203 271.6379  88.3450 15.06099850   704
2024-110B               
1 60013U 24110B   24162.90234788  .00009158  00000+0  62595-3 0  9996
2 60013  97.6016 249.5700 0011546 278.1793  81.8124 15.06317040   700
2024-110C               
1 60014U 24110C   24162.90193828  .00005117  00000+0  35071-3 0  9996
2 60014  97.6017 249.5706 0012095 280.4677  79.5187 15.06428948   708
2024-110D               
1 60015U 24110D   24162.90164029  .00009115  00000+0  61913-3 0  9994
2 60015  97.6016 249.5709 0012476 281.3554  78.6271 15.06543244   697
